#aV2012  5  8  0  0  0.00000000     288 DD+AD WGS84 FIT  NGA
## 1687 172800.00000000   300.00000000 56055 0.0000000000000
+   31     1  2  3  4  5  6  7  8  9 10 11 12 13 14 15 16 17
+         18 19 20 21 22 23 25 26 27 28 29 30 31 32  0  0  0
+          0  0  0  0  0  0  0  0  0  0  0  0  0  0  0  0  0
+          0  0  0  0  0  0  0  0  0  0  0  0  0  0  0  0  0
+          0  0  0  0  0  0  0  0  0  0  0  0  0  0  0  0  0
++         2  2  2  2  2  2  2  2  2  2  2  2  2  2  2  2  2
++         2  2  2  2  2  2  2  2  2  2  2  2  2  2  2  0  0
++         0  0  0  0  0  0  0  0  0  0  0  0  0  0  0  0  0
++         0  0  0  0  0  0  0  0  0  0  0  0  0  0  0  0  0
++         0  0  0  0  0  0  0  0  0  0  0  0  0  0  0  0  0
%c cc cc ccc ccc cccc cccc cccc cccc ccccc ccccc ccccc ccccc
%c cc cc ccc ccc cccc cccc cccc cccc ccccc ccccc ccccc ccccc
%f  0.0000000  0.000000000  0.00000000000  0.000000000000000
%f  0.0000000  0.000000000  0.00000000000  0.000000000000000
%i    0    0    0    0      0      0      0      0         0
%i    0    0    0    0      0      0      0      0         0
/*      NGA, ST. LOUIS,MO.                                  
/*   EPHEMERIS COMPUTED FROM  1 DAYS OF DATA
/*   EPOCHA SMOOTHER  
/* CCCCCCCCCCCCCCCCCCCCCCCCCCCCCCCCCCCCCCCCCCCCCCCCCCCCCCCCC
*  2012  5  8 20  0  0.00000000                                                 
P  1 -16542.101043 -13516.856936 -15809.246605    255.305023                    
V  1  20126.364174    885.467447 -21795.571020      0.025331                    
P  2  -8193.477636  14343.660531  20834.662719    389.525169                    
V  2 -26006.444833  -4402.939236  -7746.063108      0.013452                    
P  3   8316.084744 -24222.609383  -6936.629902     46.269080                    
V  3   7425.451979  -5271.814928  29560.733966      0.049956                    
P  4 -20522.357696   8010.883493  14808.606618    177.395168                    
V  4 -18629.874521  -5150.171387 -22337.250785      0.116100                    
P  5   -610.227879  23151.286258  12868.767539   -313.226625                    
V  5  -8522.037010 -14301.129642  25404.458318     -0.039040                    
P  6  13233.993965 -22638.829738  -2898.876687     27.298303                    
V  6   5327.029209  -1007.911726  31137.559265     -0.021592                    
P  7 -25375.067792  -7073.615208   4358.101321     79.475530                    
V  7   5724.543503  -1192.274636  31283.237689      0.033636                    
P  8 -25317.483707   -364.152841  -8879.226069      1.178613                    
V  8 -10578.151904  -3713.929603  29534.875265      0.000530                    
P  9  12226.597321  14481.201722 -19149.946383    156.859805                    
V  9 -23028.610518  -2140.846510 -16851.472164      0.025033                    
P 10 -13221.537404   8269.620032  21216.119897    -37.676656                    
V 10 -10262.768007 -25653.181418   3953.713203     -0.010443                    
P 11 -10828.284085 -14766.348178 -19699.593907   -259.306066                    
V 11  24079.814879  -4552.355700  -9693.084053     -0.037828                    
P 12  10608.225336  24371.530551   2190.429641     67.873451                    
V 12   -944.086297   3298.012652 -31882.589619      0.021163                    
P 13 -16379.150481  -2588.579760  20625.894358    208.629221                    
V 13  17687.797111 -19649.848726  11405.458633     -0.023259                    
P 14  20673.737488 -13489.371913  -9430.478326    202.246065                    
V 14  -6568.929336  10568.746239 -29116.307826      0.009799                    
P 15   3094.404792  18437.814509 -18791.676404    -91.331500                    
V 15 -15796.834200  18111.125642  15384.009706     -0.000156                    
P 16   1599.303728 -22683.246140  13458.560788   -234.185315                    
V 16   7516.621956  15557.765087  25647.781384     -0.013043                    
P 17 -20545.035211  12116.684949 -11253.704524    130.213899                    
V 17   7492.979719 -12844.111730 -27312.592193     -0.027822                    
P 18  17550.746872   9304.858366 -17439.565192    194.763290                    
V 18   6364.205473  22008.265080  17418.802890      0.018239                    
P 19    688.575444 -19252.095011 -18149.669175   -263.341304                    
V 19  17155.836241 -15592.318484  17616.490238     -0.037270                    
P 20 -14615.773632 -21313.041466   6123.285922     63.326305                    
V 20    -27.661975  -8761.283612 -29719.393991      0.001197                    
P 21  26508.674194   4450.133569    588.207450   -222.405372                    
V 21   -647.227008   3177.857901  30702.790614     -0.024401                    
P 22  14058.412933  -7436.194970 -21085.526824    143.748536                    
V 22  10121.254795  25394.844037  -2313.562392      0.004149                    
P 23  -9059.702089 -12698.603305  21485.627981    207.236218                    
V 23  17643.260863 -20790.754516  -5222.262300     -0.036458                    
P 25  16762.152161  14690.474192  14462.027635     33.781403                    
V 25   5216.528621  17721.516235 -23934.435122      0.004417                    
P 26 -10482.274583  21871.621458 -10988.257597   -405.411370                    
V 26 -10401.685275   8234.675709  28259.173774      0.088672                    
P 27   6711.831693  14588.923523 -20642.946150    385.847406                    
V 27 -27371.011523  -2380.999146  -9814.604164      0.040964                    
P 28 -14115.911395   3684.824957 -21649.226663    141.921805                    
V 28  -9324.312943 -27218.078990   1199.204899      0.040089                    
P 29  14720.945045   5735.147446  21411.314471    311.065438                    
V 29 -17231.100915  20832.470527   6331.120143      0.039033                    
P 30   7120.639335 -16026.192870  19588.620120   -170.372678                    
V 30  12969.071219  22179.663461  13198.301891     -0.198741                    
P 31  19349.586421  -8107.985815  16623.424053    239.944744                    
V 31  20136.675152   4558.714923 -21223.322600      0.041933                    
P 32  -7527.418802 -25740.169633   -277.906264   -441.626930                    
V 32   2743.388267   -197.516844 -31251.483149     -0.041037                    
EOF
